IRIDIUM 171             
1 43929U 19002H   25056.64234639  .00000418  00000+0  14227-3 0  9995
2 43929  86.4034 192.9601 0001841  84.9189 275.2217 14.34219294320656
IRIDIUM 170             
1 43930U 19002J   25056.64360338  .00003134  00000+0  49291-3 0  9990
2 43930  86.6146 192.7345 0002473  90.9269 269.2231 14.72257593329143
IRIDIUM 167             
1 43931U 19002K   25056.63600604  .00000252  00000+0  82768-4 0  9998
2 43931  86.4025 192.7278 0002232  85.6531 274.4920 14.34218848320657
IRIDIUM 181             
1 56726U 23068S   25056.60555919  .00000285  00000+0  78568-4 0  9995
2 56726  86.4455 255.8422 0002010  76.4029 283.7395 14.43317753 93691
IRIDIUM 177             
1 56727U 23068T   25056.32564016  .00003872  00000+0  50603-3 0  9997
2 56727  86.2007 195.1726 0002523  89.3466 270.8044 14.80226155 95824
IRIDIUM 174             
1 56728U 23068U   25056.45541879  .00004403  00000+0  57571-3 0  9996
2 56728  86.2013 195.2345 0001706  93.0857 267.0559 14.80243696 95848
IRIDIUM 178             
1 56729U 23068V   25056.44999461  .00001375  00000+0  17746-3 0  9995
2 56729  86.5769 224.6633 0001448  79.7891 280.3494 14.80237316 95847
IRIDIUM 179             
1 56730U 23068W   25056.44457453  .00001349  00000+0  17407-3 0  9992
2 56730  86.6764 231.9845 0001939  91.8806 268.2637 14.80229219 95844
